<?xml version="1.0" encoding="UTF-8"?>
<ndm xmlns:xsi="http://www.w3.org/2001/XMLSchema-instance" xsi:noNamespaceSchemaLocation="https://sanaregistry.org/r/ndmxml_unqualified/ndmxml-2.0.0-master-2.0.xsd">
<omm id="CCSDS_OMM_VERS" version="2.0">
<header><CREATION_DATE/><ORIGINATOR/></header><body><segment><metadata><OBJECT_NAME>KUIPER-00008</OBJECT_NAME><OBJECT_ID>2025-088A</OBJECT_ID><CENTER_NAME>EARTH</CENTER_NAME><REF_FRAME>TEME</REF_FRAME><TIME_SYSTEM>UTC</TIME_SYSTEM><MEAN_ELEMENT_THEORY>SGP4</MEAN_ELEMENT_THEORY></metadata><data><meanElements><EPOCH>2025-08-11T12:56:26.507616</EPOCH><MEAN_MOTION>14.98754574</MEAN_MOTION><ECCENTRICITY>.0011568</ECCENTRICITY><INCLINATION>51.8913</INCLINATION><RA_OF_ASC_NODE>325.0469</RA_OF_ASC_NODE><ARG_OF_PERICENTER>111.6626</ARG_OF_PERICENTER><MEAN_ANOMALY>248.5577</MEAN_ANOMALY></meanElements><tleParameters><EPHEMERIS_TYPE>0</EPHEMERIS_TYPE><CLASSIFICATION_TYPE>U</CLASSIFICATION_TYPE><NORAD_CAT_ID>63724</NORAD_CAT_ID><ELEMENT_SET_NO>999</ELEMENT_SET_NO><REV_AT_EPOCH>1653</REV_AT_EPOCH><BSTAR>.39631E-3</BSTAR><MEAN_MOTION_DOT>.4567E-4</MEAN_MOTION_DOT><MEAN_MOTION_DDOT>0</MEAN_MOTION_DDOT></tleParameters></data></segment></body></omm>
<omm id="CCSDS_OMM_VERS" version="2.0">
<header><CREATION_DATE/><ORIGINATOR/></header><body><segment><metadata><OBJECT_NAME>KUIPER-00009</OBJECT_NAME><OBJECT_ID>2025-088B</OBJECT_ID><CENTER_NAME>EARTH</CENTER_NAME><REF_FRAME>TEME</REF_FRAME><TIME_SYSTEM>UTC</TIME_SYSTEM><MEAN_ELEMENT_THEORY>SGP4</MEAN_ELEMENT_THEORY></metadata><data><meanElements><EPOCH>2025-08-12T06:00:02.000160</EPOCH><MEAN_MOTION>15.05148459</MEAN_MOTION><ECCENTRICITY>.0012449</ECCENTRICITY><INCLINATION>51.8851</INCLINATION><RA_OF_ASC_NODE>314.3503</RA_OF_ASC_NODE><ARG_OF_PERICENTER>134.6073</ARG_OF_PERICENTER><MEAN_ANOMALY>202.9352</MEAN_ANOMALY></meanElements><tleParameters><EPHEMERIS_TYPE>0</EPHEMERIS_TYPE><CLASSIFICATION_TYPE>U</CLASSIFICATION_TYPE><NORAD_CAT_ID>63725</NORAD_CAT_ID><ELEMENT_SET_NO>999</ELEMENT_SET_NO><REV_AT_EPOCH>1673</REV_AT_EPOCH><BSTAR>-.1738E-1</BSTAR><MEAN_MOTION_DOT>-.242898E-2</MEAN_MOTION_DOT><MEAN_MOTION_DDOT>0</MEAN_MOTION_DDOT></tleParameters></data></segment></body></omm>
<omm id="CCSDS_OMM_VERS" version="2.0">
<header><CREATION_DATE/><ORIGINATOR/></header><body><segment><metadata><OBJECT_NAME>KUIPER-00010</OBJECT_NAME><OBJECT_ID>2025-088C</OBJECT_ID><CENTER_NAME>EARTH</CENTER_NAME><REF_FRAME>TEME</REF_FRAME><TIME_SYSTEM>UTC</TIME_SYSTEM><MEAN_ELEMENT_THEORY>SGP4</MEAN_ELEMENT_THEORY></metadata><data><meanElements><EPOCH>2025-08-11T13:23:44.165184</EPOCH><MEAN_MOTION>15.36490291</MEAN_MOTION><ECCENTRICITY>.000908</ECCENTRICITY><INCLINATION>51.8646</INCLINATION><RA_OF_ASC_NODE>313.5702</RA_OF_ASC_NODE><ARG_OF_PERICENTER>124.4203</ARG_OF_PERICENTER><MEAN_ANOMALY>235.7643</MEAN_ANOMALY></meanElements><tleParameters><EPHEMERIS_TYPE>0</EPHEMERIS_TYPE><CLASSIFICATION_TYPE>U</CLASSIFICATION_TYPE><NORAD_CAT_ID>63726</NORAD_CAT_ID><ELEMENT_SET_NO>999</ELEMENT_SET_NO><REV_AT_EPOCH>1631</REV_AT_EPOCH><BSTAR>.43088E-3</BSTAR><MEAN_MOTION_DOT>.1524E-3</MEAN_MOTION_DOT><MEAN_MOTION_DDOT>0</MEAN_MOTION_DDOT></tleParameters></data></segment></body></omm>
<omm id="CCSDS_OMM_VERS" version="2.0">
<header><CREATION_DATE/><ORIGINATOR/></header><body><segment><metadata><OBJECT_NAME>KUIPER-00011</OBJECT_NAME><OBJECT_ID>2025-088D</OBJECT_ID><CENTER_NAME>EARTH</CENTER_NAME><REF_FRAME>TEME</REF_FRAME><TIME_SYSTEM>UTC</TIME_SYSTEM><MEAN_ELEMENT_THEORY>SGP4</MEAN_ELEMENT_THEORY></metadata><data><meanElements><EPOCH>2025-08-11T12:36:13.668480</EPOCH><MEAN_MOTION>15.35982887</MEAN_MOTION><ECCENTRICITY>.0010427</ECCENTRICITY><INCLINATION>51.8587</INCLINATION><RA_OF_ASC_NODE>314.0237</RA_OF_ASC_NODE><ARG_OF_PERICENTER>134.0466</ARG_OF_PERICENTER><MEAN_ANOMALY>226.1380</MEAN_ANOMALY></meanElements><tleParameters><EPHEMERIS_TYPE>0</EPHEMERIS_TYPE><CLASSIFICATION_TYPE>U</CLASSIFICATION_TYPE><NORAD_CAT_ID>63727</NORAD_CAT_ID><ELEMENT_SET_NO>999</ELEMENT_SET_NO><REV_AT_EPOCH>1644</REV_AT_EPOCH><BSTAR>.47922E-3</BSTAR><MEAN_MOTION_DOT>.16724E-3</MEAN_MOTION_DOT><MEAN_MOTION_DDOT>0</MEAN_MOTION_DDOT></tleParameters></data></segment></body></omm>
<omm id="CCSDS_OMM_VERS" version="2.0">
<header><CREATION_DATE/><ORIGINATOR/></header><body><segment><metadata><OBJECT_NAME>KUIPER-00012</OBJECT_NAME><OBJECT_ID>2025-088E</OBJECT_ID><CENTER_NAME>EARTH</CENTER_NAME><REF_FRAME>TEME</REF_FRAME><TIME_SYSTEM>UTC</TIME_SYSTEM><MEAN_ELEMENT_THEORY>SGP4</MEAN_ELEMENT_THEORY></metadata><data><meanElements><EPOCH>2025-08-11T12:31:35.037984</EPOCH><MEAN_MOTION>15.36120044</MEAN_MOTION><ECCENTRICITY>.0010609</ECCENTRICITY><INCLINATION>51.8569</INCLINATION><RA_OF_ASC_NODE>313.9887</RA_OF_ASC_NODE><ARG_OF_PERICENTER>135.2306</ARG_OF_PERICENTER><MEAN_ANOMALY>224.9538</MEAN_ANOMALY></meanElements><tleParameters><EPHEMERIS_TYPE>0</EPHEMERIS_TYPE><CLASSIFICATION_TYPE>U</CLASSIFICATION_TYPE><NORAD_CAT_ID>63728</NORAD_CAT_ID><ELEMENT_SET_NO>999</ELEMENT_SET_NO><REV_AT_EPOCH>1639</REV_AT_EPOCH><BSTAR>.49708E-3</BSTAR><MEAN_MOTION_DOT>.17443E-3</MEAN_MOTION_DOT><MEAN_MOTION_DDOT>0</MEAN_MOTION_DDOT></tleParameters></data></segment></body></omm>
<omm id="CCSDS_OMM_VERS" version="2.0">
<header><CREATION_DATE/><ORIGINATOR/></header><body><segment><metadata><OBJECT_NAME>KUIPER-00013</OBJECT_NAME><OBJECT_ID>2025-088F</OBJECT_ID><CENTER_NAME>EARTH</CENTER_NAME><REF_FRAME>TEME</REF_FRAME><TIME_SYSTEM>UTC</TIME_SYSTEM><MEAN_ELEMENT_THEORY>SGP4</MEAN_ELEMENT_THEORY></metadata><data><meanElements><EPOCH>2025-08-12T06:00:02.000160</EPOCH><MEAN_MOTION>15.01034701</MEAN_MOTION><ECCENTRICITY>.0007158</ECCENTRICITY><INCLINATION>51.8975</INCLINATION><RA_OF_ASC_NODE>315.1483</RA_OF_ASC_NODE><ARG_OF_PERICENTER>81.7757</ARG_OF_PERICENTER><MEAN_ANOMALY>228.2575</MEAN_ANOMALY></meanElements><tleParameters><EPHEMERIS_TYPE>0</EPHEMERIS_TYPE><CLASSIFICATION_TYPE>U</CLASSIFICATION_TYPE><NORAD_CAT_ID>63729</NORAD_CAT_ID><ELEMENT_SET_NO>999</ELEMENT_SET_NO><REV_AT_EPOCH>1653</REV_AT_EPOCH><BSTAR>-.41174E-1</BSTAR><MEAN_MOTION_DOT>-.501632E-2</MEAN_MOTION_DOT><MEAN_MOTION_DDOT>0</MEAN_MOTION_DDOT></tleParameters></data></segment></body></omm>
<omm id="CCSDS_OMM_VERS" version="2.0">
<header><CREATION_DATE/><ORIGINATOR/></header><body><segment><metadata><OBJECT_NAME>KUIPER-00014</OBJECT_NAME><OBJECT_ID>2025-088G</OBJECT_ID><CENTER_NAME>EARTH</CENTER_NAME><REF_FRAME>TEME</REF_FRAME><TIME_SYSTEM>UTC</TIME_SYSTEM><MEAN_ELEMENT_THEORY>SGP4</MEAN_ELEMENT_THEORY></metadata><data><meanElements><EPOCH>2025-08-12T06:00:02.000160</EPOCH><MEAN_MOTION>15.01352704</MEAN_MOTION><ECCENTRICITY>.0010182</ECCENTRICITY><INCLINATION>51.8949</INCLINATION><RA_OF_ASC_NODE>316.2098</RA_OF_ASC_NODE><ARG_OF_PERICENTER>127.1340</ARG_OF_PERICENTER><MEAN_ANOMALY>91.4727</MEAN_ANOMALY></meanElements><tleParameters><EPHEMERIS_TYPE>0</EPHEMERIS_TYPE><CLASSIFICATION_TYPE>U</CLASSIFICATION_TYPE><NORAD_CAT_ID>63730</NORAD_CAT_ID><ELEMENT_SET_NO>999</ELEMENT_SET_NO><REV_AT_EPOCH>1633</REV_AT_EPOCH><BSTAR>-.86981E-1</BSTAR><MEAN_MOTION_DOT>-.1051286E-1</MEAN_MOTION_DOT><MEAN_MOTION_DDOT>0</MEAN_MOTION_DDOT></tleParameters></data></segment></body></omm>
<omm id="CCSDS_OMM_VERS" version="2.0">
<header><CREATION_DATE/><ORIGINATOR/></header><body><segment><metadata><OBJECT_NAME>KUIPER-00015</OBJECT_NAME><OBJECT_ID>2025-088H</OBJECT_ID><CENTER_NAME>EARTH</CENTER_NAME><REF_FRAME>TEME</REF_FRAME><TIME_SYSTEM>UTC</TIME_SYSTEM><MEAN_ELEMENT_THEORY>SGP4</MEAN_ELEMENT_THEORY></metadata><data><meanElements><EPOCH>2025-08-11T14:17:37.648896</EPOCH><MEAN_MOTION>14.81140796</MEAN_MOTION><ECCENTRICITY>.0011444</ECCENTRICITY><INCLINATION>51.9008</INCLINATION><RA_OF_ASC_NODE>330.4383</RA_OF_ASC_NODE><ARG_OF_PERICENTER>105.5504</ARG_OF_PERICENTER><MEAN_ANOMALY>254.6723</MEAN_ANOMALY></meanElements><tleParameters><EPHEMERIS_TYPE>0</EPHEMERIS_TYPE><CLASSIFICATION_TYPE>U</CLASSIFICATION_TYPE><NORAD_CAT_ID>63731</NORAD_CAT_ID><ELEMENT_SET_NO>999</ELEMENT_SET_NO><REV_AT_EPOCH>1654</REV_AT_EPOCH><BSTAR>.1008E-3</BSTAR><MEAN_MOTION_DOT>.565E-5</MEAN_MOTION_DOT><MEAN_MOTION_DDOT>0</MEAN_MOTION_DDOT></tleParameters></data></segment></body></omm>

</ndm>
